SARSAT 7 (NOAA 15)      
1 25338U 98030A   23017.53987262  .00000325  00000+0  15360-3 0  9993
2 25338  98.6238  49.0478 0010944  38.3209 321.8747 14.26224621283784
GPS BIIR-08             
1 27663U 03005A   23016.39589929  .00000038  00000+0  00000+0 0  9997
2 27663  55.3746 264.5998 0131401  42.4910 123.7316  2.00552044146285
GPS BIIR-11             
1 28190U 04009A   23017.44671209 -.00000063  00000+0  00000+0 0  9997
2 28190  55.8644 325.5864 0088489 128.6160 232.7140  2.00572413137978
GPS BIIR-13             
1 28474U 04045A   23016.65319368 -.00000053  00000+0  00000+0 0  9998
2 28474  55.4109  14.9053 0202849 283.0973  76.9784  2.00561966133418
SARSAT 10 (NOAA 18)     
1 28654U 05018A   23017.44111121  .00000328  00000+0  20032-3 0  9999
2 28654  98.9274  92.4742 0015182  87.6070 272.6840 14.12841895910281
GPS BIIR-14M            
1 28874U 05038A   23016.86973594 -.00000061  00000+0  00000+0 0  9994
2 28874  55.9227 323.0517 0140026 277.8477  55.7482  2.00561035126818
METEOSAT-9 (MSG-2)      
1 28912U 05049B   23017.12340868  .00000142  00000+0  00000+0 0  9990
2 28912   6.5015  64.8693 0001018 197.9613 303.5283  1.00271549 62576
GOES 13                 
1 29155U 06018A   23016.87445653  .00000058  00000+0  00000+0 0  9992
2 29155   1.1265  92.8679 0004683 163.6621 235.8420  1.00265412 30879
GPS BIIR-16M            
1 29601U 06052A   23015.97703384  .00000037  00000+0  00000+0 0  9991
2 29601  55.3884 263.5637 0086218  75.6557 285.3719  2.00563032118371
GPS BIIR-17M            
1 32260U 07047A   23015.78000779  .00000021  00000+0  00000+0 0  9991
2 32260  53.3789 131.7415 0145429  66.9579 294.5553  2.00564085111779
GPS BIIR-18M            
1 32384U 07062A   23016.33847935 -.00000061  00000+0  00000+0 0  9995
2 32384  56.0487 323.8621 0019782 144.0274  27.4657  2.00573115110485
SARSAT 12 (NOAA 19)     
1 33591U 09005A   23017.53781930  .00000315  00000+0  19472-3 0  9998
2 33591  99.1230  60.9030 0013112 309.0401  50.9603 14.12669255718673
GOES 14                 
1 35491U 09033A   23017.48689513 -.00000072  00000+0  00000+0 0  9992
2 35491   0.0785 233.1362 0016814 354.7932 319.5644  1.00268768 49651
GOES 15                 
1 36411U 10008A   23016.69324059  .00000076  00000+0  00000+0 0  9995
2 36411   0.0330 308.2164 0002662 242.5404  46.5480  1.00266631 47153
GPS BIIF-2              
1 37753U 11036A   23016.86295806 -.00000047  00000+0  00000+0 0  9992
2 37753  56.6875  20.4058 0120277  52.9314 284.9393  2.00566559 84251
GSAT0101 (GALILEO-PFM)  
1 37846U 11060A   23013.83623120 -.00000056  00000+0  00000+0 0  9990
2 37846  57.0619  15.6231 0003072 331.1083  28.9004  1.70476037 69808
GSAT0102 (GALILEO-FM2)  
1 37847U 11060B   23015.81663670 -.00000053  00000+0  00000+0 0  9992
2 37847  57.0634  15.5689 0004849 314.5743 227.6544  1.70475276 69961
LUCH 5A                 
1 37951U 11074B   23017.54102456 -.00000031  00000+0  00000+0 0  9991
2 37951   5.5574  93.7092 0002361 188.2272 196.6100  1.00275758 40692
METEOSAT-10 (MSG-3)     
1 38552U 12035B   23017.29452209  .00000084  00000+0  00000+0 0  9990
2 38552   1.8801  51.2337 0000662 204.5135 336.5294  1.00279002 38710
SARSAT 13 (METOP-B)     
1 38771U 12049A   23017.45666875  .00000259  00000+0  13839-3 0  9994
2 38771  98.7021  79.1937 0001619 109.4569 261.2721 14.21498785536130
GPS BIIF-3              
1 38833U 12053A   23016.37893223  .00000120  00000+0  00000+0 0  9996
2 38833  53.5191 194.6346 0135024  49.7518 311.4360  2.00564133 74411
GSAT0103 (GALILEO-FM3)  
1 38857U 12055A   23013.87504040  .00000034  00000+0  00000+0 0  9996
2 38857  55.2034 135.9127 0003108 241.8250 118.1219  1.70473544 63832
GSAT0104 (GALILEO-FM4)  
1 38858U 12055B   23016.77773598  .00000025  00000+0  00000+0 0  9995
2 38858  55.2042 135.8344 0001572 190.2488 169.7197  1.70473724 63742
GPS BIIF-4              
1 39166U 13023A   23016.73609713 -.00000059  00000+0  00000+0 0  9995
2 39166  55.5430 319.3461 0110082  38.6118 322.1789  2.00565034 70863
INSAT-3D                
1 39216U 13038B   23016.87855328 -.00000134  00000+0  00000+0 0  9991
2 39216   0.0199  70.6340 0001318 218.0100 225.7323  1.00268521 34597
GPS BIIF-5              
1 39533U 14008A   23013.24884694  .00000102  00000+0  00000+0 0  9991
2 39533  53.6094 200.2923 0061355 209.2086 150.4649  2.00565311 64593
LUCH 5V                 
1 39727U 14023A   23017.09979885 -.00000249  00000+0  00000+0 0  9990
2 39727   2.0128  77.2493 0002984 244.6206 285.0233  1.00268256550005
GPS BIIF-6              
1 39741U 14026A   23016.51727437 -.00000047  00000+0  00000+0 0  9995
2 39741  56.6451  19.9439 0030429 307.0367  52.7192  2.00573533 63511
GPS BIIF-7              
1 40105U 14045A   23016.60872868  .00000027  00000+0  00000+0 0  9998
2 40105  54.7446 138.2915 0023694 114.3118 245.9165  2.00561461 61053
GSAT0201 (GALILEO 5)    
1 40128U 14050A   23016.65257084 -.00000082  00000+0  00000+0 0  9993
2 40128  50.1304 323.7839 1613186 131.7456 243.2427  1.85519237 55171
GSAT0202 (GALILEO 6)    
1 40129U 14050B   23016.91280478 -.00000082  00000+0  00000+0 0  9996
2 40129  50.1517 322.8398 1610508 132.5649 242.2258  1.85519898 57318
GPS BIIF-8              
1 40294U 14068A   23015.48205051 -.00000035  00000+0  00000+0 0  9991
2 40294  55.9823  79.5723 0042243  57.3170 303.1463  2.00556120 60168
GLONASS-K 2             
1 40315U 14075A   23015.30566361  .00000101  00000+0  00000+0 0  9991
2 40315  63.6595 233.7601 0017130 205.6830 287.1453  2.13101343 63240
GPS BIIF-9              
1 40534U 15013A   23016.61542728  .00000058  00000+0  00000+0 0  9994
2 40534  53.5778 255.8595 0076739  23.2732 337.1498  2.00568806 56802
GSAT0203 (GALILEO 7)    
1 40544U 15017A   23015.37536819 -.00000054  00000+0  00000+0 0  9992
2 40544  56.8579  15.5855 0005094 268.6431  91.3254  1.70475844 47911
GSAT0204 (GALILEO 8)    
1 40545U 15017B   23016.80178294 -.00000054  00000+0  00000+0 0  9991
2 40545  56.8640  15.5598 0004556 258.9476 101.0279  1.70475482 48609
GPS BIIF-10             
1 40730U 15033A   23016.77431437 -.00000059  00000+0  00000+0 0  9997
2 40730  55.0362 318.0705 0081256   9.5748 350.5894  2.00567011 54977
METEOSAT-11 (MSG-4)     
1 40732U 15034A   23017.29269163  .00000020  00000+0  00000+0 0  9990
2 40732   0.4635   3.9704 0000679  52.8197 165.4549  1.00278326 27500
GSAT0205 (GALILEO 9)    
1 40889U 15045A   23016.56998605  .00000053  00000+0  00000+0 0  9990
2 40889  55.4906 256.0757 0006766  34.3967 325.7311  1.70472884 45742
GSAT0206 (GALILEO 10)   
1 40890U 15045B   23016.20406962  .00000051  00000+0  00000+0 0  9991
2 40890  55.4908 256.0822 0004551  20.3686 339.7324  1.70472731 45764
GPS BIIF-11             
1 41019U 15062A   23016.32920359 -.00000035  00000+0  00000+0 0  9991
2 41019  55.9694  79.3854 0085449 220.2211 139.1989  2.00562356 52805
ELEKTRO-L 2             
1 41105U 15074A   23017.43311436 -.00000100  00000+0  00000+0 0  9996
2 41105   3.5259  85.6294 0002483 166.0876   6.2991  1.00270844 26014
GSAT0209 (GALILEO 12)   
1 41174U 15079A   23015.79010409  .00000030  00000+0  00000+0 0  9991
2 41174  55.2207 135.5651 0002286 310.0496  49.9063  1.70474723 43493
GSAT0208 (GALILEO 11)   
1 41175U 15079B   23014.24988917  .00000034  00000+0  00000+0 0  9993
2 41175  55.2186 135.6060 0001687 307.8707  52.0927  1.70474642 43885
GPS BIIF-12             
1 41328U 16007A   23016.41594425  .00000031  00000+0  00000+0 0  9990
2 41328  54.9561 139.0220 0066529 230.9477 128.4407  2.00560565 50816
GSAT0211 (GALILEO 14)   
1 41549U 16030A   23013.19684478  .00000042  00000+0  00000+0 0  9993
2 41549  55.6375 256.1203 0004678   9.3767 350.7151  1.70473068 41320
GSAT0210 (GALILEO 13)   
1 41550U 16030B   23015.83506743  .00000050  00000+0  00000+0 0  9995
2 41550  55.6356 256.0488 0002726 350.2296   9.8472  1.70474594 41381
INSAT-3DR               
1 41752U 16054A   23017.45080885 -.00000057  00000+0  00000+0 0  9997
2 41752   0.0843  94.8809 0013587 178.6659  79.3503  1.00271556 23290
GSAT0207 (GALILEO 15)   
1 41859U 16069A   23016.67069966  .00000025  00000+0  00000+0 0  9995
2 41859  54.8824 135.6695 0002507 284.5838  75.3606  1.70474724 38135
GSAT0212 (GALILEO 16)   
1 41860U 16069B   23015.93805407  .00000029  00000+0  00000+0 0  9997
2 41860  54.8798 135.6872 0001132 340.1811  19.7897  1.70473414 38372
GSAT0213 (GALILEO 17)   
1 41861U 16069C   23015.71669258  .00000030  00000+0  00000+0 0  9998
2 41861  54.8818 135.6988 0002953 251.5888 108.3551  1.70473469 38232
GSAT0214 (GALILEO 18)   
1 41862U 16069D   23012.93094299  .00000032  00000+0  00000+0 0  9999
2 41862  54.8792 135.7704 0002018 248.9583 110.9965  1.70473525 38315
GOES 16                 
1 41866U 16071A   23017.49273519 -.00000228  00000+0  00000+0 0  9994
2 41866   0.0828 255.4255 0000660  93.6710 229.7394  1.00271376 22604
GSAT-17                 
1 42815U 17040B   23017.67428192 -.00000239  00000+0  00000+0 0  9997
2 42815   0.0202 299.8878 0005662 330.7143 182.4855  1.00271251 20371
GSAT0215 (GALILEO 19)   
1 43055U 17079A   23015.76746493  .00000050  00000+0  00000+0 0  9991
2 43055  55.6122 255.8786 0002138 347.4266  12.6500  1.70473780 31709
GSAT0216 (GALILEO 20)   
1 43056U 17079B   23017.23270268  .00000056  00000+0  00000+0 0  9994
2 43056  55.6121 255.8379 0003519 316.2782  43.7806  1.70473991 31717
GSAT0217 (GALILEO 21)   
1 43057U 17079C   23016.27983380  .00000052  00000+0  00000+0 0  9990
2 43057  55.6105 255.8637 0003721 335.5987  24.4670  1.70473898 31714
GSAT0218 (GALILEO 22)   
1 43058U 17079D   23014.15351110  .00000044  00000+0  00000+0 0  9997
2 43058  55.6122 255.9204 0003621 310.8307  49.2192  1.70474002 31673
GOES 17                 
1 43226U 18022A   23010.68452196  .00000113  00000+0  00000+0 0  9990
2 43226   0.0067 160.8990 0000528 160.1134 258.0183  1.00273520 17865
GSAT0221 (GALILEO 25)   
1 43564U 18060A   23016.98485867 -.00000053  00000+0  00000+0 0  9991
2 43564  57.2395  15.4114 0005643 282.9336  77.0298  1.70475694 27917
